
[{"ORDINAL":"2","COMMENT":"GENERATED VIA SPACETRACK.ORG API","ORIGINATOR":"JSPOC","NORAD_CAT_ID":"40264","OBJECT_NAME":"CZ-2C DEB","OBJECT_TYPE":"DEBRIS","CLASSIFICATION_TYPE":"U","INTLDES":"14059D","EPOCH":"2015-04-09 19:13:55","EPOCH_MICROSECONDS":"960031","MEAN_MOTION":"14.47570878","ECCENTRICITY":"0.0113645","INCLINATION":"97.8728","RA_OF_ASC_NODE":"179.689","ARG_OF_PERICENTER":"343.4316","MEAN_ANOMALY":"16.3172","EPHEMERIS_TYPE":"0","ELEMENT_SET_NO":"999","REV_AT_EPOCH":"2799","BSTAR":"0.00085371","MEAN_MOTION_DOT":"3.364e-05","MEAN_MOTION_DDOT":"0","FILE":"1853625","TLE_LINE0":"0 CZ-2C DEB","TLE_LINE1":"1 40264U 14059D   15099.80134213  .00003364  00000-0  85371-3 0  9994","TLE_LINE2":"2 40264 097.8728 179.6890 0113645 343.4316 016.3172 14.47570878 27991","OBJECT_ID":"2014-059D","OBJECT_NUMBER":"40264"},{"ORDINAL":"1","COMMENT":"GENERATED VIA SPACETRACK.ORG API","ORIGINATOR":"JSPOC","NORAD_CAT_ID":"40149","OBJECT_NAME":"ARIANE 5 DEB (SYLDA)","OBJECT_TYPE":"DEBRIS","CLASSIFICATION_TYPE":"U","INTLDES":"14054D","EPOCH":"2015-04-09 20:40:09","EPOCH_MICROSECONDS":"719040","MEAN_MOTION":"2.39983581","ECCENTRICITY":"0.7200206","INCLINATION":"6.1526","RA_OF_ASC_NODE":"59.3982","ARG_OF_PERICENTER":"354.5027","MEAN_ANOMALY":"0.485","EPHEMERIS_TYPE":"0","ELEMENT_SET_NO":"999","REV_AT_EPOCH":"487","BSTAR":"0.012932","MEAN_MOTION_DOT":"0.00097278","MEAN_MOTION_DDOT":"0","FILE":"1853659","TLE_LINE0":"0 ARIANE 5 DEB (SYLDA)","TLE_LINE1":"1 40149U 14054D   15099.86122360  .00097278  00000-0  12932-1 0  9995","TLE_LINE2":"2 40149 006.1526 059.3982 7200206 354.5027 000.4850 02.39983581  4873","OBJECT_ID":"2014-054D","OBJECT_NUMBER":"40149"},{"ORDINAL":"3","COMMENT":"GENERATED VIA SPACETRACK.ORG API","ORIGINATOR":"JSPOC","NORAD_CAT_ID":"40289","OBJECT_NAME":"CZ-2C DEB","OBJECT_TYPE":"DEBRIS","CLASSIFICATION_TYPE":"U","INTLDES":"14066D","EPOCH":"2015-04-09 21:01:26","EPOCH_MICROSECONDS":"692032","MEAN_MOTION":"14.4819699","ECCENTRICITY":"0.0112272","INCLINATION":"98.4479","RA_OF_ASC_NODE":"218.6364","ARG_OF_PERICENTER":"80.3467","MEAN_ANOMALY":"281.0878","EPHEMERIS_TYPE":"0","ELEMENT_SET_NO":"999","REV_AT_EPOCH":"2380","BSTAR":"0.0012955","MEAN_MOTION_DOT":"5.229e-05","MEAN_MOTION_DDOT":"0","FILE":"1853658","TLE_LINE0":"0 CZ-2C DEB","TLE_LINE1":"1 40289U 14066D   15099.87600338  .00005229  00000-0  12955-2 0  9991","TLE_LINE2":"2 40289 098.4479 218.6364 0112272 080.3467 281.0878 14.48196990 23807","OBJECT_ID":"2014-066D","OBJECT_NUMBER":"40289"},{"ORDINAL":"3","COMMENT":"GENERATED VIA SPACETRACK.ORG API","ORIGINATOR":"JSPOC","NORAD_CAT_ID":"40274","OBJECT_NAME":"ARIANE 5 DEB (SYLDA)","OBJECT_TYPE":"DEBRIS","CLASSIFICATION_TYPE":"U","INTLDES":"14062D","EPOCH":"2015-04-09 21:56:48","EPOCH_MICROSECONDS":"618240","MEAN_MOTION":"2.37723938","ECCENTRICITY":"0.7219541","INCLINATION":"5.9868","RA_OF_ASC_NODE":"102.1038","ARG_OF_PERICENTER":"326.7842","MEAN_ANOMALY":"3.7784","EPHEMERIS_TYPE":"0","ELEMENT_SET_NO":"999","REV_AT_EPOCH":"405","BSTAR":"0.0090898","MEAN_MOTION_DOT":"0.0007459","MEAN_MOTION_DDOT":"0","FILE":"1853703","TLE_LINE0":"0 ARIANE 5 DEB (SYLDA)","TLE_LINE1":"1 40274U 14062D   15099.91445160  .00074590  00000-0  90898-2 0  9995","TLE_LINE2":"2 40274 005.9868 102.1038 7219541 326.7842 003.7784 02.37723938  4053","OBJECT_ID":"2014-062D","OBJECT_NUMBER":"40274"},{"ORDINAL":"2","COMMENT":"GENERATED VIA SPACETRACK.ORG API","ORIGINATOR":"JSPOC","NORAD_CAT_ID":"40274","OBJECT_NAME":"ARIANE 5 DEB (SYLDA)","OBJECT_TYPE":"DEBRIS","CLASSIFICATION_TYPE":"U","INTLDES":"14062D","EPOCH":"2015-04-09 21:57:41","EPOCH_MICROSECONDS":"744736","MEAN_MOTION":"2.3773007","ECCENTRICITY":"0.7217077","INCLINATION":"6.0075","RA_OF_ASC_NODE":"101.8221","ARG_OF_PERICENTER":"327.0458","MEAN_ANOMALY":"4.3726","EPHEMERIS_TYPE":"0","ELEMENT_SET_NO":"999","REV_AT_EPOCH":"405","BSTAR":"0.0086381","MEAN_MOTION_DOT":"0.00061452","MEAN_MOTION_DDOT":"0","FILE":"1853796","TLE_LINE0":"0 ARIANE 5 DEB (SYLDA)","TLE_LINE1":"1 40274U 14062D   15099.91506649  .00061452  00000-0  86381-2 0  9990","TLE_LINE2":"2 40274 006.0075 101.8221 7217077 327.0458 004.3726 02.37730070  4052","OBJECT_ID":"2014-062D","OBJECT_NUMBER":"40274"},{"ORDINAL":"2","COMMENT":"GENERATED VIA SPACETRACK.ORG API","ORIGINATOR":"JSPOC","NORAD_CAT_ID":"40290","OBJECT_NAME":"CZ-2C DEB","OBJECT_TYPE":"DEBRIS","CLASSIFICATION_TYPE":"U","INTLDES":"14066E","EPOCH":"2015-04-09 22:10:14","EPOCH_MICROSECONDS":"422656","MEAN_MOTION":"14.50204381","ECCENTRICITY":"0.0101313","INCLINATION":"97.9705","RA_OF_ASC_NODE":"210.2356","ARG_OF_PERICENTER":"77.5942","MEAN_ANOMALY":"283.6568","EPHEMERIS_TYPE":"0","ELEMENT_SET_NO":"999","REV_AT_EPOCH":"2385","BSTAR":"0.0012604","MEAN_MOTION_DOT":"5.195e-05","MEAN_MOTION_DDOT":"0","FILE":"1853747","TLE_LINE0":"0 CZ-2C DEB","TLE_LINE1":"1 40290U 14066E   15099.92377804  .00005195  00000-0  12604-2 0  9991","TLE_LINE2":"2 40290 097.9705 210.2356 0101313 077.5942 283.6568 14.50204381 23850","OBJECT_ID":"2014-066E","OBJECT_NUMBER":"40290"},{"ORDINAL":"3","COMMENT":"GENERATED VIA SPACETRACK.ORG API","ORIGINATOR":"JSPOC","NORAD_CAT_ID":"40290","OBJECT_NAME":"CZ-2C DEB","OBJECT_TYPE":"DEBRIS","CLASSIFICATION_TYPE":"U","INTLDES":"14066E","EPOCH":"2015-04-09 22:10:15","EPOCH_MICROSECONDS":"640896","MEAN_MOTION":"14.50197672","ECCENTRICITY":"0.0101224","INCLINATION":"97.9718","RA_OF_ASC_NODE":"210.241","ARG_OF_PERICENTER":"77.5217","MEAN_ANOMALY":"283.7773","EPHEMERIS_TYPE":"0","ELEMENT_SET_NO":"999","REV_AT_EPOCH":"2385","BSTAR":"0.0013557","MEAN_MOTION_DOT":"5.627e-05","MEAN_MOTION_DDOT":"0","FILE":"1853671","TLE_LINE0":"0 CZ-2C DEB","TLE_LINE1":"1 40290U 14066E   15099.92379214  .00005627  00000-0  13557-2 0  9996","TLE_LINE2":"2 40290 097.9718 210.2410 0101224 077.5217 283.7773 14.50197672 23854","OBJECT_ID":"2014-066E","OBJECT_NUMBER":"40290"},{"ORDINAL":"2","COMMENT":"GENERATED VIA SPACETRACK.ORG API","ORIGINATOR":"JSPOC","NORAD_CAT_ID":"40291","OBJECT_NAME":"CZ-2C DEB","OBJECT_TYPE":"DEBRIS","CLASSIFICATION_TYPE":"U","INTLDES":"14066F","EPOCH":"2015-04-09 22:25:09","EPOCH_MICROSECONDS":"994079","MEAN_MOTION":"14.22399669","ECCENTRICITY":"0.0179078","INCLINATION":"98.4463","RA_OF_ASC_NODE":"212.2274","ARG_OF_PERICENTER":"50.4599","MEAN_ANOMALY":"311.2234","EPHEMERIS_TYPE":"0","ELEMENT_SET_NO":"999","REV_AT_EPOCH":"2339","BSTAR":"0.00083214","MEAN_MOTION_DOT":"2.141e-05","MEAN_MOTION_DDOT":"0","FILE":"1853748","TLE_LINE0":"0 CZ-2C DEB","TLE_LINE1":"1 40291U 14066F   15099.93414345  .00002141  00000-0  83214-3 0  9999","TLE_LINE2":"2 40291 098.4463 212.2274 0179078 050.4599 311.2234 14.22399669 23390","OBJECT_ID":"2014-066F","OBJECT_NUMBER":"40291"},{"ORDINAL":"4","COMMENT":"GENERATED VIA SPACETRACK.ORG API","ORIGINATOR":"JSPOC","NORAD_CAT_ID":"40366","OBJECT_NAME":"BREEZE-M DEB (TANK)","OBJECT_TYPE":"DEBRIS","CLASSIFICATION_TYPE":"U","INTLDES":"14089C","EPOCH":"2015-04-09 22:32:42","EPOCH_MICROSECONDS":"601344","MEAN_MOTION":"5.1850884","ECCENTRICITY":"0.5242937","INCLINATION":"49.5471","RA_OF_ASC_NODE":"351.1578","ARG_OF_PERICENTER":"59.5592","MEAN_ANOMALY":"342.0068","EPHEMERIS_TYPE":"0","ELEMENT_SET_NO":"999","REV_AT_EPOCH":"533","BSTAR":"0","MEAN_MOTION_DOT":"-9.7e-07","MEAN_MOTION_DDOT":"0","FILE":"1853671","TLE_LINE0":"0 BREEZE-M DEB (TANK)","TLE_LINE1":"1 40366U 14089C   15099.93938196 -.00000097  00000-0  00000+0 0  9999","TLE_LINE2":"2 40366 049.5471 351.1578 5242937 059.5592 342.0068 05.18508840  5331","OBJECT_ID":"2014-089C","OBJECT_NUMBER":"40366"},{"ORDINAL":"4","COMMENT":"GENERATED VIA SPACETRACK.ORG API","ORIGINATOR":"JSPOC","NORAD_CAT_ID":"39615","OBJECT_NAME":"BREEZE-M DEB (TANK)","OBJECT_TYPE":"DEBRIS","CLASSIFICATION_TYPE":"U","INTLDES":"14010D","EPOCH":"2015-04-09 23:09:20","EPOCH_MICROSECONDS":"253599","MEAN_MOTION":"2.56134403","ECCENTRICITY":"0.7111001","INCLINATION":"48.4078","RA_OF_ASC_NODE":"60.6103","ARG_OF_PERICENTER":"98.0645","MEAN_ANOMALY":"340.9325","EPHEMERIS_TYPE":"0","ELEMENT_SET_NO":"999","REV_AT_EPOCH":"891","BSTAR":"0.00068687","MEAN_MOTION_DOT":"0.00161238","MEAN_MOTION_DDOT":"1.5023e-07","FILE":"1853900","TLE_LINE0":"0 BREEZE-M DEB (TANK)","TLE_LINE1":"1 39615U 14010D   15099.96481775  .00161238  15023-6  68687-3 0  9997","TLE_LINE2":"2 39615 048.4078 060.6103 7111001 098.0645 340.9325 02.56134403  8918","OBJECT_ID":"2014-010D","OBJECT_NUMBER":"39615"},{"ORDINAL":"1","COMMENT":"GENERATED VIA SPACETRACK.ORG API","ORIGINATOR":"JSPOC","NORAD_CAT_ID":"40386","OBJECT_NAME":"BREEZE-M DEB (TANK)","OBJECT_TYPE":"DEBRIS","CLASSIFICATION_TYPE":"U","INTLDES":"15005C","EPOCH":"2015-04-09 23:43:41","EPOCH_MICROSECONDS":"73312","MEAN_MOTION":"5.25245435","ECCENTRICITY":"0.5184249","INCLINATION":"50.7472","RA_OF_ASC_NODE":"277.0565","ARG_OF_PERICENTER":"212.1589","MEAN_ANOMALY":"101.8274","EPHEMERIS_TYPE":"0","ELEMENT_SET_NO":"999","REV_AT_EPOCH":"351","BSTAR":"0.00064692","MEAN_MOTION_DOT":"1.685e-05","MEAN_MOTION_DDOT":"0","FILE":"1854025","TLE_LINE0":"0 BREEZE-M DEB (TANK)","TLE_LINE1":"1 40386U 15005C   15099.98866983  .00001685  00000-0  64692-3 0  9993","TLE_LINE2":"2 40386 050.7472 277.0565 5184249 212.1589 101.8274 05.25245435  3518","OBJECT_ID":"2015-005C","OBJECT_NUMBER":"40386"},{"ORDINAL":"1","COMMENT":"GENERATED VIA SPACETRACK.ORG API","ORIGINATOR":"JSPOC","NORAD_CAT_ID":"39626","OBJECT_NAME":"CZ-2C DEB","OBJECT_TYPE":"DEBRIS","CLASSIFICATION_TYPE":"U","INTLDES":"14014C","EPOCH":"2015-04-10 01:33:46","EPOCH_MICROSECONDS":"634976","MEAN_MOTION":"14.5003504","ECCENTRICITY":"0.0110814","INCLINATION":"98.007","RA_OF_ASC_NODE":"140.9375","ARG_OF_PERICENTER":"152.9915","MEAN_ANOMALY":"207.7107","EPHEMERIS_TYPE":"0","ELEMENT_SET_NO":"999","REV_AT_EPOCH":"5427","BSTAR":"0.00068256","MEAN_MOTION_DOT":"2.817e-05","MEAN_MOTION_DDOT":"0","FILE":"1853814","TLE_LINE0":"0 CZ-2C DEB","TLE_LINE1":"1 39626U 14014C   15100.06512309  .00002817  00000-0  68256-3 0  9997","TLE_LINE2":"2 39626 098.0070 140.9375 0110814 152.9915 207.7107 14.50035040 54272","OBJECT_ID":"2014-014C","OBJECT_NUMBER":"39626"}]